stk.v.4.3 

BEGIN Ephemeris 
 
NumberOfEphemerisPoints		146 
ScenarioEpoch	    1 Sep 2020 20:45:30.573213101 
InterpolationMethod		Lagrange 
InterpolationOrder		5 
CentralBody				Earth 
CoordinateSystem			TEME 
CoordinateSystemEpoch	  1 Sep 2020 20:45:30.573213101 
DistanceUnit			Kilometers 
 
EphemerisTimePosVel 
 
       0.00000000   -5460.59849193   -4629.50197996       0.03631481  0.310142119 -0.351354706  7.448664095
 END Ephemeris 
